[{"OBJECT_NAME":"STARLINK-30467","OBJECT_ID":"2023-146E","EPOCH":"2026-03-09T22:00:01.999584","MEAN_MOTION":15.12880838,"ECCENTRICITY":0.00023153,"INCLINATION":42.9991,"RA_OF_ASC_NODE":312.0737,"ARG_OF_PERICENTER":235.3451,"MEAN_ANOMALY":23.4393,"EPHEMERIS_TYPE":0,"CLASSIFICATION_TYPE":"U","NORAD_CAT_ID":57895,"ELEMENT_SET_NO":999,"REV_AT_EPOCH":547,"BSTAR":0.087923825,"MEAN_MOTION_DOT":0.01725536,"MEAN_MOTION_DDOT":0},{"OBJECT_NAME":"TIANYI A","OBJECT_ID":"2025-103A","EPOCH":"2026-03-09T23:28:50.058624","MEAN_MOTION":15.19175591,"ECCENTRICITY":0.00016783,"INCLINATION":97.412,"RA_OF_ASC_NODE":143.3859,"ARG_OF_PERICENTER":88.7813,"MEAN_ANOMALY":271.3614,"EPHEMERIS_TYPE":0,"CLASSIFICATION_TYPE":"U","NORAD_CAT_ID":64048,"ELEMENT_SET_NO":999,"REV_AT_EPOCH":4501,"BSTAR":0.0001128032,"MEAN_MOTION_DOT":2.305e-5,"MEAN_MOTION_DDOT":0}]
